STARLINK-31387          
1 59407U 24064K   25164.30282714 -.00003135  00000+0 -10457-3 0  9999
2 59407  43.0013 137.7820 0000425 254.1280 105.9525 15.27551685 68027
STARLINK-31396          
1 59409U 24064M   25164.27469386  .00000356  00000+0  22472-4 0  9990
2 59409  43.0021 127.1775 0001199 269.6309  90.4405 15.27573593 68085
STARLINK-31412          
1 59410U 24064N   25164.60788695  .00000547  00000+0  29387-4 0  9990
2 59410  42.9980 135.7624 0001208 273.5036  86.5677 15.27586091 68072
STARLINK-31483          
1 59411U 24064P   25164.29251370  .00002131  00000+0  86916-4 0  9993
2 59411  43.0000 137.6994 0001035 272.5016  87.5717 15.27588767 68027
STARLINK-31568          
1 59412U 24064Q   25164.29509118  .00002878  00000+0  11405-3 0  9998
2 59412  43.0006 137.7181 0000969 274.6032  85.4709 15.27585124 68021
STARLINK-31615          
1 59413U 24064R   25164.28834475  .00000855  00000+0  40594-4 0  9990
2 59413  43.0018 130.7231 0001026 264.8666  95.2069 15.27580508 68101
STARLINK-31457          
1 59414U 24064S   25164.35629977  .00000704  00000+0  35102-4 0  9990
2 59414  43.0029 130.3739 0000678 270.0022  90.0752 15.27581982 68110
STARLINK-31398          
1 59415U 24064T   25164.21172601  .00023118  00000+0  84900-3 0  9996
2 59415  42.9998 137.9449 0001627 300.4835  59.5856 15.27502024 68014
STARLINK-31399          
1 59416U 24064U   25164.20529063  .00000407  00000+0  24307-4 0  9996
2 59416  43.0018 137.8964 0001158 254.7766 105.2958 15.27588303 68010
STARLINK-31401          
1 59417U 24064V   25164.28448985  .00000925  00000+0  43126-4 0  9993
2 59417  43.0055 130.7161 0001017 285.0131  75.0608 15.27582251 67853
STARLINK-31414          
1 59418U 24064W   25164.41943418  .00001050  00000+0  47682-4 0  9991
2 59418  43.0044 136.9267 0001157 272.1293  87.9426 15.27585488 68045
STARLINK-31415          
1 59419U 24064X   25164.31439681 -.00002416  00000+0 -78349-4 0  9996
2 59419  43.0031 137.8680 0000759 277.1422  82.9343 15.27568298 68028
STARLINK-31466          
1 59420U 24064Y   25164.24512914 -.00000795  00000+0 -19358-4 0  9994
2 59420  43.0023 138.2083 0001150 270.8871  89.1849 15.27585224 68014
STARLINK-11087 [DTC]    
1 59421U 24065A   25164.51103162 -.00000149  00000+0  36231-5 0  9999
2 59421  53.1578 340.9762 0000405 295.4517  64.6459 15.69707366 69239
STARLINK-11090 [DTC]    
1 59422U 24065B   25164.49631117  .00000161  00000+0  61825-5 0  9993
2 59422  53.1586 340.8799 0000935  96.1357 263.9768 15.69707979 69253
STARLINK-11093 [DTC]    
1 59423U 24065C   25164.62855142  .00000678  00000+0  10450-4 0  9995
2 59423  53.1582 340.2854 0000701  63.3625 296.7465 15.69713652 69265
STARLINK-11083 [DTC]    
1 59424U 24065D   25163.80577705 -.00002021  00000+0 -11836-4 0  9996
2 59424  53.1591 344.3974 0001072  57.6209 302.4912 15.69692160 69082
STARLINK-11085 [DTC]    
1 59425U 24065E   25163.79104021  .00000879  00000+0  12104-4 0  9998
2 59425  53.1580 344.3001 0000763 148.8773 211.2291 15.69715900 69082
STARLINK-11089 [DTC]    
1 59426U 24065F   25164.51593498 -.00003220  00000+0 -21736-4 0  9996
2 59426  53.1585 341.0269 0000938  70.6626 289.4493 15.69704188 69246
STARLINK-31757          
1 59427U 24065G   25163.83283070  .00001363  00000+0  58151-4 0  9998
2 59427  53.1656  95.1063 0001281  85.1560 274.9587 15.30200950 67613
STARLINK-31773          
1 59429U 24065J   25164.53282779  .00007212  00000+0  25535-3 0  9991
2 59429  53.1601  93.7788 0001384  82.2673 277.8485 15.30206532 67699
STARLINK-31772          
1 59430U 24065K   25164.53545998 -.00000024  00000+0  11329-4 0  9990
2 59430  53.1604  91.6587 0001196  88.0872 272.0266 15.30197092 67722
STARLINK-31613          
1 59431U 24065L   25163.82966245  .00000138  00000+0  16795-4 0  9991
2 59431  53.1589  95.0759 0001123  83.9169 276.1960 15.30200346 67607
STARLINK-31780          
1 59432U 24065M   25164.49019458  .00000371  00000+0  24621-4 0  9997
2 59432  53.1649  92.0852 0000343  95.4769 264.6271 15.30199910 67716
STARLINK-31740          
1 59433U 24065N   25164.53071841  .00001775  00000+0  72091-4 0  9990
2 59433  53.1512  93.7654 0003060  81.8917 278.2431 15.30197789 67695
STARLINK-31580          
1 59434U 24065P   25164.53918080 -.00001373  00000+0 -34249-4 0  9995
2 59434  53.1609  93.8178 0001675  88.1327 271.9865 15.30180656 67696
STARLINK-31696          
1 59435U 24065Q   25163.82649605  .00001263  00000+0  54750-4 0  9996
2 59435  53.1635  95.0559 0001815  91.9441 268.1768 15.30214794 67611
STARLINK-31700          
1 59436U 24065R   25164.21205805 -.00000168  00000+0  64704-5 0  9996
2 59436  53.1604  93.1959 0001256  79.1347 280.9795 15.30192546 67671
STARLINK-31706          
1 59437U 24065S   25164.52799386  .00051880  00000+0  17127-2 0  9993
2 59437  53.1597  93.7503 0001191  92.4870 267.6268 15.30925897 67693
STARLINK-31711          
1 59438U 24065T   25163.23550619  .00001526  00000+0  63658-4 0  9999
2 59438  53.1607  97.7662 0001224  83.1962 276.9178 15.30192565 67525
STARLINK-31708          
1 59439U 24065U   25164.53229577  .00000452  00000+0  27378-4 0  9996
2 59439  53.1610  91.6402 0001313  80.9939 279.1210 15.30197506 67727
STARLINK-31693          
1 59441U 24065W   25163.51258978  .00000593  00000+0  32134-4 0  9995
2 59441  53.1598  96.6484 0001102  91.0833 269.0294 15.30193302 67564
STARLINK-31622          
1 59456U 24068B   25164.58119516  .00000196  00000+0  16651-4 0  9991
2 59456  43.0030 114.5149 0000901 281.9890  78.0860 15.27574450 67364
STARLINK-31319          
1 59457U 24068C   25164.23033284  .00003896  00000+0  15111-3 0  9990
2 59457  43.0015 112.7247 0000488 273.9598  86.1198 15.27561224 67351
STARLINK-31625          
1 59458U 24068D   25164.24397559  .00000763  00000+0  37251-4 0  9990
2 59458  43.0014 116.2834 0000804 273.6537  86.4223 15.27580691 67311
STARLINK-31631          
1 59459U 24068E   25164.54312511 -.00001463  00000+0 -43665-4 0  9995
2 59459  43.0018 110.7638 0001076 274.3633  85.7096 15.27569559 67404
STARLINK-31620          
1 59460U 24068F   25164.56497045  .00002573  00000+0  10298-3 0  9991
2 59460  43.0018 110.9319 0001054 265.9923  94.0809 15.27587015 67400
STARLINK-31511          
1 59462U 24068H   25164.57733763 -.00000279  00000+0 -63129-6 0  9991
2 59462  43.0033 114.4865 0001252 254.0468 106.0246 15.27578806 67369
STARLINK-31364          
1 59463U 24068J   25164.55082932  .00000312  00000+0  20853-4 0  9996
2 59463  43.0012 110.8235 0000625 289.0104  71.0679 15.27581351 67401
STARLINK-31597          
1 59464U 24068K   25164.56706914  .00000590  00000+0  30968-4 0  9997
2 59464  43.0019 114.4054 0000992 270.5331  89.5407 15.27575135 67318
STARLINK-31621          
1 59465U 24068L   25164.57348029 -.00000097  00000+0  59831-5 0  9992
2 59465  43.0008 114.4656 0000597 247.6148 112.4641 15.27581607 67369
STARLINK-31462          
1 59466U 24068M   25164.23240320  .00001414  00000+0  60894-4 0  9994
2 59466  43.0004 116.1747 0000917 272.2005  87.8741 15.27585821 67311
STARLINK-31592          
1 59467U 24068N   25164.58504565  .00000200  00000+0  16786-4 0  9990
2 59467  43.0032 114.5399 0000967 267.7830  92.2910 15.27581641 67367
STARLINK-31267          
1 59468U 24068P   25164.19819350  .00003208  00000+0  12603-3 0  9993
2 59468  43.0007 112.4631 0001256 263.4908  96.5800 15.27582189 67359
STARLINK-31381          
1 59469U 24068Q   25164.57268377  .00000250  00000+0  18613-4 0  9995
2 59469  43.0020 110.9880 0000734 283.6959  76.3811 15.27580267 67403
STARLINK-31546          
1 59470U 24068R   25163.96493224 -.00000316  00000+0 -19753-5 0  9992
2 59470  43.0008 114.1669 0000771 279.8373  80.2392 15.27575040 67311
STARLINK-31575          
1 59471U 24068S   25164.56112079  .00001896  00000+0  78402-4 0  9993
2 59471  43.0037 110.9017 0001083 260.3938  99.6791 15.27584505 67407
STARLINK-31610          
1 59473U 24068U   25164.55163762 -.00000565  00000+0 -11008-4 0  9992
2 59473  43.0021 114.2794 0000699 329.6217  30.4594 15.27576393 67367
STARLINK-31581          
1 59474U 24068V   25164.55133706 -.00000856  00000+0 -21618-4 0  9999
2 59474  42.9981 107.3473 0000424  66.9226 293.1670 15.27565293 67444
STARLINK-31566          
1 59475U 24068W   25164.22855603  .00000861  00000+0  40782-4 0  9998
2 59475  42.9999 116.1567 0000698 262.5026  97.5746 15.27581670 67314
STARLINK-31515          
1 59476U 24068X   25164.23627243  .00000289  00000+0  20017-4 0  9990
2 59476  43.0014 116.2174 0000924 266.6803  93.3943 15.27569626 67310
STARLINK-31531          
1 59477U 24068Y   25164.06859857  .00001686  00000+0  70774-4 0  9997
2 59477  42.9979  62.0373 0000793 297.3827  62.6944 15.27585630 67918
STARLINK-31753          
1 59484U 24071A   25163.76739219  .00000378  00000+0  23247-4 0  9994
2 59484  43.0018  64.1929 0001172 280.2806  79.7913 15.27577326 66920
STARLINK-31733          
1 59486U 24071C   25164.58334491  .00064001  00000+0  22595-2 0  9996
2 59486  43.0007  59.2237 0001481 260.8433  66.1445 15.28377323  5907
STARLINK-31657          
1 59487U 24071D   25164.58334491  .00119523  00000+0  41814-2 0  9992
2 59487  43.0002  59.4423 0001253 266.6473 329.2916 15.28366974  5969
STARLINK-31754          
1 59488U 24071E   25164.13702613  .00005079  00000+0  19390-3 0  9994
2 59488  43.0033  69.5967 0001186 278.5325  81.5392 15.27588172 66892
STARLINK-31638          
1 59489U 24071F   25164.08017047  .00002654  00000+0  10587-3 0  9994
2 59489  42.9972  62.2458 0001788 272.4317  87.6330 15.27602577 66974
STARLINK-31670          
1 59490U 24071G   25164.09943602  .00001721  00000+0  72038-4 0  9996
2 59490  43.0035  73.6538 0001248 271.2464  88.8245 15.27587429 66846
STARLINK-31712          
1 59491U 24071H   25164.10071998  .00002802  00000+0  11126-3 0  9990
2 59491  42.9951  73.6397 0001547 302.5432  57.5270 15.27590458 66847
